IRIDIUM 166             
1 43570U 18061B   25223.94141766  .00000026  00000+0  22017-5 0  9991
2 43570  86.4016 185.9569 0002323  92.3956 267.7506 14.34217792369071
IRIDIUM 158             
1 43571U 18061C   25223.90970446  .00000020  00000+0  14967-7 0  9994
2 43571  86.4015 185.9799 0002127  86.0552 274.0887 14.34217711369030
IRIDIUM 165             
1 43572U 18061D   25223.93507053  .00000228  00000+0  74232-4 0  9996
2 43572  86.4013 186.0096 0002445  87.9431 272.2044 14.34217441369068
IRIDIUM 155             
1 43573U 18061E   25223.96678599  .00000206  00000+0  66567-4 0  9992
2 43573  86.4011 185.8810 0002057  91.1574 268.9858 14.34217382369038
IRIDIUM 154             
1 43574U 18061F   25223.94776014  .00000039  00000+0  69720-5 0  9991
2 43574  86.4016 186.0070 0002305  86.7325 273.4135 14.34217748369085
IRIDIUM 163             
1 43575U 18061G   25223.92873232 -.00000062  00000+0 -29172-4 0  9994
2 43575  86.4017 185.9405 0002065  82.4210 277.7220 14.34217572369050
IRIDIUM 156             
1 43576U 18061H   25223.90336172  .00000028  00000+0  30898-5 0  9998
2 43576  86.4015 185.9578 0002120  94.2427 265.9011 14.34217806369049
IRIDIUM 164             
1 43577U 18061J   25223.95410351  .00000030  00000+0  34997-5 0  9993
2 43577  86.4016 185.9719 0002479  89.2043 270.9437 14.34217784369091
